<?xml version="1.0" encoding="UTF-8"?>
<ndm xmlns:xsi="http://www.w3.org/2001/XMLSchema-instance" xsi:noNamespaceSchemaLocation="https://sanaregistry.org/r/ndmxml_unqualified/ndmxml-2.0.0-master-2.0.xsd">
<omm id="CCSDS_OMM_VERS" version="2.0">
<header><CREATION_DATE/><ORIGINATOR/></header><body><segment><metadata><OBJECT_NAME>KUIPER-00079</OBJECT_NAME><OBJECT_ID>2025-151L</OBJECT_ID><CENTER_NAME>EARTH</CENTER_NAME><REF_FRAME>TEME</REF_FRAME><TIME_SYSTEM>UTC</TIME_SYSTEM><MEAN_ELEMENT_THEORY>SGP4</MEAN_ELEMENT_THEORY></metadata><data><meanElements><EPOCH>2025-11-01T13:25:05.207520</EPOCH><MEAN_MOTION>14.79926788</MEAN_MOTION><ECCENTRICITY>.00123076</ECCENTRICITY><INCLINATION>51.8998</INCLINATION><RA_OF_ASC_NODE>146.8643</RA_OF_ASC_NODE><ARG_OF_PERICENTER>169.4106</ARG_OF_PERICENTER><MEAN_ANOMALY>190.7118</MEAN_ANOMALY></meanElements><tleParameters><EPHEMERIS_TYPE>0</EPHEMERIS_TYPE><CLASSIFICATION_TYPE>U</CLASSIFICATION_TYPE><NORAD_CAT_ID>64826</NORAD_CAT_ID><ELEMENT_SET_NO>999</ELEMENT_SET_NO><REV_AT_EPOCH>1753</REV_AT_EPOCH><BSTAR>-.55256702E-3</BSTAR><MEAN_MOTION_DOT>-.4439E-4</MEAN_MOTION_DOT><MEAN_MOTION_DDOT>0</MEAN_MOTION_DDOT></tleParameters></data></segment></body></omm>
<omm id="CCSDS_OMM_VERS" version="2.0">
<header><CREATION_DATE/><ORIGINATOR/></header><body><segment><metadata><OBJECT_NAME>KUIPER-00080</OBJECT_NAME><OBJECT_ID>2025-151M</OBJECT_ID><CENTER_NAME>EARTH</CENTER_NAME><REF_FRAME>TEME</REF_FRAME><TIME_SYSTEM>UTC</TIME_SYSTEM><MEAN_ELEMENT_THEORY>SGP4</MEAN_ELEMENT_THEORY></metadata><data><meanElements><EPOCH>2025-11-01T13:18:40.237632</EPOCH><MEAN_MOTION>14.79920892</MEAN_MOTION><ECCENTRICITY>.00055496</ECCENTRICITY><INCLINATION>51.8979</INCLINATION><RA_OF_ASC_NODE>147.1869</RA_OF_ASC_NODE><ARG_OF_PERICENTER>186.9875</ARG_OF_PERICENTER><MEAN_ANOMALY>173.1011</MEAN_ANOMALY></meanElements><tleParameters><EPHEMERIS_TYPE>0</EPHEMERIS_TYPE><CLASSIFICATION_TYPE>U</CLASSIFICATION_TYPE><NORAD_CAT_ID>64827</NORAD_CAT_ID><ELEMENT_SET_NO>999</ELEMENT_SET_NO><REV_AT_EPOCH>1633</REV_AT_EPOCH><BSTAR>.54968893E-3</BSTAR><MEAN_MOTION_DOT>.397E-4</MEAN_MOTION_DOT><MEAN_MOTION_DDOT>0</MEAN_MOTION_DDOT></tleParameters></data></segment></body></omm>
<omm id="CCSDS_OMM_VERS" version="2.0">
<header><CREATION_DATE/><ORIGINATOR/></header><body><segment><metadata><OBJECT_NAME>KUIPER-00082</OBJECT_NAME><OBJECT_ID>2025-151N</OBJECT_ID><CENTER_NAME>EARTH</CENTER_NAME><REF_FRAME>TEME</REF_FRAME><TIME_SYSTEM>UTC</TIME_SYSTEM><MEAN_ELEMENT_THEORY>SGP4</MEAN_ELEMENT_THEORY></metadata><data><meanElements><EPOCH>2025-11-01T16:00:01.999584</EPOCH><MEAN_MOTION>14.79970379</MEAN_MOTION><ECCENTRICITY>.00046116</ECCENTRICITY><INCLINATION>51.9001</INCLINATION><RA_OF_ASC_NODE>134.1982</RA_OF_ASC_NODE><ARG_OF_PERICENTER>203.8894</ARG_OF_PERICENTER><MEAN_ANOMALY>141.7904</MEAN_ANOMALY></meanElements><tleParameters><EPHEMERIS_TYPE>0</EPHEMERIS_TYPE><CLASSIFICATION_TYPE>U</CLASSIFICATION_TYPE><NORAD_CAT_ID>64828</NORAD_CAT_ID><ELEMENT_SET_NO>999</ELEMENT_SET_NO><REV_AT_EPOCH>385</REV_AT_EPOCH><BSTAR>-.32817962E-2</BSTAR><MEAN_MOTION_DOT>-.25174E-3</MEAN_MOTION_DOT><MEAN_MOTION_DDOT>0</MEAN_MOTION_DDOT></tleParameters></data></segment></body></omm>
<omm id="CCSDS_OMM_VERS" version="2.0">
<header><CREATION_DATE/><ORIGINATOR/></header><body><segment><metadata><OBJECT_NAME>KUIPER-00083</OBJECT_NAME><OBJECT_ID>2025-151P</OBJECT_ID><CENTER_NAME>EARTH</CENTER_NAME><REF_FRAME>TEME</REF_FRAME><TIME_SYSTEM>UTC</TIME_SYSTEM><MEAN_ELEMENT_THEORY>SGP4</MEAN_ELEMENT_THEORY></metadata><data><meanElements><EPOCH>2025-11-01T06:08:46.423104</EPOCH><MEAN_MOTION>14.79912290</MEAN_MOTION><ECCENTRICITY>.00106952</ECCENTRICITY><INCLINATION>51.8999</INCLINATION><RA_OF_ASC_NODE>143.5137</RA_OF_ASC_NODE><ARG_OF_PERICENTER>176.1346</ARG_OF_PERICENTER><MEAN_ANOMALY>183.9701</MEAN_ANOMALY></meanElements><tleParameters><EPHEMERIS_TYPE>0</EPHEMERIS_TYPE><CLASSIFICATION_TYPE>U</CLASSIFICATION_TYPE><NORAD_CAT_ID>64829</NORAD_CAT_ID><ELEMENT_SET_NO>999</ELEMENT_SET_NO><REV_AT_EPOCH>1754</REV_AT_EPOCH><BSTAR>.28954517E-3</BSTAR><MEAN_MOTION_DOT>.1985E-4</MEAN_MOTION_DOT><MEAN_MOTION_DDOT>0</MEAN_MOTION_DDOT></tleParameters></data></segment></body></omm>
<omm id="CCSDS_OMM_VERS" version="2.0">
<header><CREATION_DATE/><ORIGINATOR/></header><body><segment><metadata><OBJECT_NAME>KUIPER-00084</OBJECT_NAME><OBJECT_ID>2025-151Q</OBJECT_ID><CENTER_NAME>EARTH</CENTER_NAME><REF_FRAME>TEME</REF_FRAME><TIME_SYSTEM>UTC</TIME_SYSTEM><MEAN_ELEMENT_THEORY>SGP4</MEAN_ELEMENT_THEORY></metadata><data><meanElements><EPOCH>2025-11-01T13:59:30.365376</EPOCH><MEAN_MOTION>14.79952195</MEAN_MOTION><ECCENTRICITY>.00121131</ECCENTRICITY><INCLINATION>51.8984</INCLINATION><RA_OF_ASC_NODE>152.0552</RA_OF_ASC_NODE><ARG_OF_PERICENTER>148.7880</ARG_OF_PERICENTER><MEAN_ANOMALY>211.3804</MEAN_ANOMALY></meanElements><tleParameters><EPHEMERIS_TYPE>0</EPHEMERIS_TYPE><CLASSIFICATION_TYPE>U</CLASSIFICATION_TYPE><NORAD_CAT_ID>64830</NORAD_CAT_ID><ELEMENT_SET_NO>999</ELEMENT_SET_NO><REV_AT_EPOCH>1626</REV_AT_EPOCH><BSTAR>.55523384E-3</BSTAR><MEAN_MOTION_DOT>.4018E-4</MEAN_MOTION_DOT><MEAN_MOTION_DDOT>0</MEAN_MOTION_DDOT></tleParameters></data></segment></body></omm>
<omm id="CCSDS_OMM_VERS" version="2.0">
<header><CREATION_DATE/><ORIGINATOR/></header><body><segment><metadata><OBJECT_NAME>KUIPER-00085</OBJECT_NAME><OBJECT_ID>2025-151R</OBJECT_ID><CENTER_NAME>EARTH</CENTER_NAME><REF_FRAME>TEME</REF_FRAME><TIME_SYSTEM>UTC</TIME_SYSTEM><MEAN_ELEMENT_THEORY>SGP4</MEAN_ELEMENT_THEORY></metadata><data><meanElements><EPOCH>2025-11-01T16:00:01.999584</EPOCH><MEAN_MOTION>14.79776975</MEAN_MOTION><ECCENTRICITY>.00078312</ECCENTRICITY><INCLINATION>51.9013</INCLINATION><RA_OF_ASC_NODE>134.2079</RA_OF_ASC_NODE><ARG_OF_PERICENTER>184.4353</ARG_OF_PERICENTER><MEAN_ANOMALY>341.7359</MEAN_ANOMALY></meanElements><tleParameters><EPHEMERIS_TYPE>0</EPHEMERIS_TYPE><CLASSIFICATION_TYPE>U</CLASSIFICATION_TYPE><NORAD_CAT_ID>64831</NORAD_CAT_ID><ELEMENT_SET_NO>999</ELEMENT_SET_NO><REV_AT_EPOCH>318</REV_AT_EPOCH><BSTAR>.18320554E-2</BSTAR><MEAN_MOTION_DOT>.13727E-3</MEAN_MOTION_DOT><MEAN_MOTION_DDOT>0</MEAN_MOTION_DDOT></tleParameters></data></segment></body></omm>
<omm id="CCSDS_OMM_VERS" version="2.0">
<header><CREATION_DATE/><ORIGINATOR/></header><body><segment><metadata><OBJECT_NAME>KUIPER-00086</OBJECT_NAME><OBJECT_ID>2025-151S</OBJECT_ID><CENTER_NAME>EARTH</CENTER_NAME><REF_FRAME>TEME</REF_FRAME><TIME_SYSTEM>UTC</TIME_SYSTEM><MEAN_ELEMENT_THEORY>SGP4</MEAN_ELEMENT_THEORY></metadata><data><meanElements><EPOCH>2025-11-01T06:53:45.610944</EPOCH><MEAN_MOTION>14.79947960</MEAN_MOTION><ECCENTRICITY>.0011314</ECCENTRICITY><INCLINATION>51.9007</INCLINATION><RA_OF_ASC_NODE>145.8772</RA_OF_ASC_NODE><ARG_OF_PERICENTER>171.2223</ARG_OF_PERICENTER><MEAN_ANOMALY>188.8940</MEAN_ANOMALY></meanElements><tleParameters><EPHEMERIS_TYPE>0</EPHEMERIS_TYPE><CLASSIFICATION_TYPE>U</CLASSIFICATION_TYPE><NORAD_CAT_ID>64832</NORAD_CAT_ID><ELEMENT_SET_NO>999</ELEMENT_SET_NO><REV_AT_EPOCH>1632</REV_AT_EPOCH><BSTAR>.12993486E-2</BSTAR><MEAN_MOTION_DOT>.971E-4</MEAN_MOTION_DOT><MEAN_MOTION_DDOT>0</MEAN_MOTION_DDOT></tleParameters></data></segment></body></omm>
<omm id="CCSDS_OMM_VERS" version="2.0">
<header><CREATION_DATE/><ORIGINATOR/></header><body><segment><metadata><OBJECT_NAME>KUIPER-00087</OBJECT_NAME><OBJECT_ID>2025-151T</OBJECT_ID><CENTER_NAME>EARTH</CENTER_NAME><REF_FRAME>TEME</REF_FRAME><TIME_SYSTEM>UTC</TIME_SYSTEM><MEAN_ELEMENT_THEORY>SGP4</MEAN_ELEMENT_THEORY></metadata><data><meanElements><EPOCH>2025-11-01T16:00:01.999584</EPOCH><MEAN_MOTION>15.02899002</MEAN_MOTION><ECCENTRICITY>.00021052</ECCENTRICITY><INCLINATION>51.8888</INCLINATION><RA_OF_ASC_NODE>128.0262</RA_OF_ASC_NODE><ARG_OF_PERICENTER>197.5779</ARG_OF_PERICENTER><MEAN_ANOMALY>318.9706</MEAN_ANOMALY></meanElements><tleParameters><EPHEMERIS_TYPE>0</EPHEMERIS_TYPE><CLASSIFICATION_TYPE>U</CLASSIFICATION_TYPE><NORAD_CAT_ID>64833</NORAD_CAT_ID><ELEMENT_SET_NO>999</ELEMENT_SET_NO><REV_AT_EPOCH>351</REV_AT_EPOCH><BSTAR>-.84106151E-1</BSTAR><MEAN_MOTION_DOT>-.1056666E-1</MEAN_MOTION_DOT><MEAN_MOTION_DDOT>0</MEAN_MOTION_DDOT></tleParameters></data></segment></body></omm>

</ndm>
