KUIPER-00079            
1 64826U 25151L   25305.55908805 -.00004439  00000+0 -55257-3 0  9993
2 64826  51.8998 146.8643 0012307 169.4106 190.7118 14.79926788 17534
KUIPER-00080            
1 64827U 25151M   25305.55463238  .00003970  00000+0  54969-3 0  9996
2 64827  51.8979 147.1869 0005549 186.9875 173.1011 14.79920892 16339
KUIPER-00082            
1 64828U 25151N   25305.66668981 -.00025174  00000+0 -32818-2 0  9991
2 64828  51.9001 134.1982 0004611 203.8894 141.7904 14.79970379  3858
KUIPER-00083            
1 64829U 25151P   25305.25609286  .00001985  00000+0  28955-3 0  9990
2 64829  51.8999 143.5137 0010695 176.1346 183.9701 14.79912290 17545
KUIPER-00084            
1 64830U 25151Q   25305.58299034  .00004018  00000+0  55523-3 0  9995
2 64830  51.8984 152.0552 0012113 148.7880 211.3804 14.79952195 16268
KUIPER-00085            
1 64831U 25151R   25305.66668981  .00013727  00000+0  18321-2 0  9997
2 64831  51.9013 134.2079 0007831 184.4353 341.7359 14.79776975  3182
KUIPER-00086            
1 64832U 25151S   25305.28733346  .00009710  00000+0  12993-2 0  9990
2 64832  51.9007 145.8772 0011314 171.2223 188.8940 14.79947960 16325
KUIPER-00087            
1 64833U 25151T   25305.66668981 -.01056666  00000+0 -84106-1 0  9994
2 64833  51.8888 128.0262 0002105 197.5779 318.9706 15.02899002  3517
